NORAD_CAT_ID,OBJECT_NAME,OBJECT_TYPE,EPOCH,MEAN_MOTION,ECCENTRICITY,INCLINATION,RA_OF_ASC_NODE,ARG_OF_PERICENTER,MEAN_ANOMALY,BSTAR,MEAN_MOTION_DOT,MEAN_MOTION_DDOT,TLE_LINE0,TLE_LINE1,TLE_LINE2,SEMIMAJOR_AXIS,PERIOD,APOGEE,PERIGEE,DECAYED
53435.0,STARLINK-4542,PAYLOAD,2022-08-15 18:00:00,15.85945637,0.0020437,53.2175,220.7459,53.1057,18.1081,-0.0050963,-0.01152396,0.0,0 STARLINK-4542,1 53435U 22097AZ  22227.75001157 -.01152396  00000-0 -50963-2 0  9995,2 53435  53.2175 220.7459 0020437  53.1057  18.1081 15.85945637  1307,6691.8,90.798,327.341,299.9890000000001,0.0
53435.0,STARLINK-4542,PAYLOAD,2022-08-16 06:00:02,15.84650808,0.0015115,53.2175,218.2282,50.2467,356.24300000000005,-0.0055318,-0.01160434,0.0,0 STARLINK-4542,1 53435U 22097AZ  22228.25002315 -.01160434  00000-0 -55318-2 0  9999,2 53435  53.2175 218.2282 0015115  50.2467 356.2430 15.84650808  1376,6695.445,90.872,327.43,307.19,0.0
53435.0,STARLINK-4542,PAYLOAD,2022-08-16 14:00:01,15.8379045,0.0011745999999999,53.2173,216.5511,48.6415,99.9519,-0.0058558,-0.01192381,0.0,0 STARLINK-4542,1 53435U 22097AZ  22228.58334491 -.01192381  00000-0 -58558-2 0  9993,2 53435  53.2173 216.5511 0011746  48.6415  99.9519 15.83790450  1309,6697.87,90.921,327.6020000000001,311.867,0.0
53435.0,STARLINK-4542,PAYLOAD,2022-08-16 22:00:00,15.8294499,0.0008648999999999,53.2173,214.875,44.484,205.231,-0.0063302,-0.01228687,0.0,0 STARLINK-4542,1 53435U 22097AZ  22228.91667824 -.01228687  00000-0 -63302-2 0  9991,2 53435  53.2173 214.8750 0008649  44.4840 205.2310 15.82944990  1309,6700.254,90.97,327.914,316.324,0.0
53435.0,STARLINK-4542,PAYLOAD,2022-08-17 14:00:01,15.8118487,0.0004143,53.2173,211.534,15.7057,73.1454,-0.0066342,-0.0118537,0.0,0 STARLINK-4542,1 53435U 22097AZ  22229.58334491 -.01185370  00000-0 -66342-2 0  9994,2 53435  53.2173 211.5340 0004143  15.7057  73.1454 15.81184870  1598,6705.226,91.071,329.869,324.313,0.0
53435.0,STARLINK-4542,PAYLOAD,2022-08-18 08:00:01,15.79212804,0.0003226,53.2183,207.7849,358.7357,39.1573,-0.0071075,-0.01161269,0.0,0 STARLINK-4542,1 53435U 22097AZ  22230.33334491 -.01161269  00000-0 -71075-2 0  9999,2 53435  53.2183 207.7849 0003226 358.7357  39.1573 15.79212804  1707,6710.807,91.185,334.837,330.50699999999995,0.0
53435.0,STARLINK-4542,PAYLOAD,2022-08-18 14:00:01,15.78595901,0.0003288,53.2175,206.5362,348.6317,31.0823,-0.0076211,-0.01205098,0.0,0 STARLINK-4542,1 53435U 22097AZ  22230.58334491 -.01205098  00000-0 -76211-2 0  9992,2 53435  53.2175 206.5362 0003288 348.6317  31.0823 15.78595901  1303,6712.555,91.22,336.6269999999999,332.213,0.0
53435.0,STARLINK-4542,PAYLOAD,2022-08-18 22:00:00,15.77719542,0.0003519,53.2175,204.8731,4.8859,109.703,-0.0078394,-0.01192958,0.0,0 STARLINK-4542,1 53435U 22097AZ  22230.91667824 -.01192958  00000-0 -78394-2 0  9992,2 53435  53.2175 204.8731 0003519   4.8859 109.7030 15.77719542  1809,6715.041,91.271,339.269,334.543,0.0
53435.0,STARLINK-4542,PAYLOAD,2022-08-19 14:00:01,15.75978563,3.47e-05,53.2174,201.5573,8.8091,292.3937,-0.0084132,-0.01183452,0.0,0 STARLINK-4542,1 53435U 22097AZ  22231.58334491 -.01183452  00000-0 -84132-2 0  9993,2 53435  53.2174 201.5573 0000347   8.8091 292.3937 15.75978563  1302,6719.985,91.372,342.083,341.617,0.0
53435.0,STARLINK-4542,PAYLOAD,2022-08-19 16:00:00,15.75769347,6.24e-05,53.2176,201.1428,47.0983,7.135,-0.0085877999999999,-0.01195451,0.0,0 STARLINK-4542,1 53435U 22097AZ  22231.66667824 -.01195451  00000-0 -85878-2 0  9991,2 53435  53.2176 201.1428 0000624  47.0983   7.1350 15.75769347  1918,6720.58,91.384,342.8640000000001,342.025,0.0
53435.0,STARLINK-4542,PAYLOAD,2022-08-19 22:00:00,15.75115138,0.000103,53.2177,199.901,63.8923,329.0498,-0.0087925,-0.01189965,0.0,0 STARLINK-4542,1 53435U 22097AZ  22231.91667824 -.01189965  00000-0 -87925-2 0  9997,2 53435  53.2177 199.9010 0001030  63.8923 329.0498 15.75115138  1307,6722.441,91.422,344.99800000000016,343.61300000000006,0.0
53435.0,STARLINK-4542,PAYLOAD,2022-08-20 14:00:01,15.73347179,0.0001019,53.2173,196.5977,75.4081,137.9129,-0.0016024999999999,-0.00221092,0.0,0 STARLINK-4542,1 53435U 22097AZ  22232.58334491 -.00221092  00000-0 -16025-2 0  9992,2 53435  53.2173 196.5977 0001019  75.4081 137.9129 15.73347179  2060,6727.476,91.525,350.026,348.655,0.0
53435.0,STARLINK-4542,PAYLOAD,2022-08-20 22:00:00,15.73203838,0.0001159,53.2175,194.9471,70.167,232.16,1.447e-05,1.412e-05,0.0,0 STARLINK-4542,1 53435U 22097AZ  22232.91667824  .00001412  00000-0  14470-4 0  9992,2 53435  53.2175 194.9471 0001159  70.1670 232.1600 15.73203838  1305,6727.884,91.533,350.529,348.969,0.0
53435.0,STARLINK-4542,PAYLOAD,2022-08-21 06:00:00,15.73163981,0.0001385999999999,53.22,193.3035,74.3374,316.71,0.00034106,0.00047442,0.0,0 STARLINK-4542,1 53435U 22097AZ  22233.25001157  .00047442  00000-0  34106-3 0  9991,2 53435  53.2200 193.3035 0001386  74.3374 316.7100 15.73163981  2165,6727.998000000001,91.535,350.795,348.93,0.0
53435.0,STARLINK-4542,PAYLOAD,2022-08-21 14:00:01,15.73231367,0.0001286999999999,53.2202,191.6528,78.3531,41.6177,9.7628e-05,0.00013121,0.0,0 STARLINK-4542,1 53435U 22097AZ  22233.58334491  .00013121  00000-0  97628-4 0  9993,2 53435  53.2202 191.6528 0001287  78.3531  41.6177 15.73231367  1301,6727.806,91.531,350.537,348.805,0.0
53435.0,STARLINK-4542,PAYLOAD,2022-08-21 22:00:00,15.73248703,0.0001351,53.2204,190.0027,85.3164,123.6091,0.00031793,0.00044328,0.0,0 STARLINK-4542,1 53435U 22097AZ  22233.91667824  .00044328  00000-0  31793-3 0  9992,2 53435  53.2204 190.0027 0001351  85.3164 123.6091 15.73248703  1300,6727.755999999999,91.53,350.53,348.712,0.0
53435.0,STARLINK-4542,PAYLOAD,2022-08-22 12:00:00,15.73260008,0.0001200999999999,53.2195,187.1171,75.7256,198.9588,-0.0001706,-0.00024554,0.0,0 STARLINK-4542,1 53435U 22097AZ  22234.50001157 -.00024554  00000-0 -17060-3 0  9991,2 53435  53.2195 187.1171 0001201  75.7256 198.9588 15.73260008  1303,6727.724,91.53,350.397,348.781,0.0
53435.0,STARLINK-4542,PAYLOAD,2022-08-22 22:00:00,15.73245868,0.0001233,53.2201,185.0545,88.1145,27.7979,-0.00027625,-0.00039285,0.0,0 STARLINK-4542,1 53435U 22097AZ  22234.91667824 -.00039285  00000-0 -27625-3 0  9990,2 53435  53.2201 185.0545 0001233  88.1145  27.7979 15.73245868  2438,6727.764,91.531,350.459,348.8,0.0
53435.0,STARLINK-4542,PAYLOAD,2022-08-23 14:00:01,15.73182191,0.000105,53.2205,181.7561,81.8227,211.9567,9.0927e-05,0.0001215,0.0,0 STARLINK-4542,1 53435U 22097AZ  22235.58334491  .00012150  00000-0  90927-4 0  9991,2 53435  53.2205 181.7561 0001050  81.8227 211.9567 15.73182191  1305,6727.946,91.534,350.517,349.105,0.0
53435.0,STARLINK-4542,PAYLOAD,2022-08-23 20:00:01,15.73203112,0.0001557,53.2175,180.5133,84.7758,185.7267,2.174e-05,2.432e-05,0.0,0 STARLINK-4542,1 53435U 22097AZ  22235.83334491  .00002432  00000-0  21740-4 0  9998,2 53435  53.2175 180.5133 0001557  84.7758 185.7267 15.73203112  2578,6727.886,91.533,350.7990000000001,348.704,0.0
53435.0,STARLINK-4542,PAYLOAD,2022-08-23 22:00:01,15.7320494,0.0001581,53.2177,180.1014,83.6316,299.1692,-5.5215e-06,-1.395e-05,0.0,0 STARLINK-4542,1 53435U 22097AZ  22235.91668981 -.00001395  00000-0 -55215-5 0  9995,2 53435  53.2177 180.1014 0001581  83.6316 299.1692 15.73204940  1301,6727.880999999999,91.533,350.81,348.682,0.0
53435.0,STARLINK-4542,PAYLOAD,2022-08-24 06:00:00,15.7321761,0.0001062,53.2206,178.4589,71.6797,40.0869,-0.00021448,-0.00030633,0.0,0 STARLINK-4542,1 53435U 22097AZ  22236.25001157 -.00030633  00000-0 -21448-3 0  9995,2 53435  53.2206 178.4589 0001062  71.6797  40.0869 15.73217610  2640,6727.845,91.532,350.4240000000001,348.995,0.0
53435.0,STARLINK-4542,PAYLOAD,2022-08-24 14:00:01,15.73178217,8.35e-05,53.2205,176.8078,81.6336,119.0779,0.00010143,0.00013625,0.0,0 STARLINK-4542,1 53435U 22097AZ  22236.58334491  .00013625  00000-0  10143-3 0  9991,2 53435  53.2205 176.8078 0000835  81.6336 119.0779 15.73178217  1309,6727.956999999999,91.534,350.384,349.26,0.0
53435.0,STARLINK-4542,PAYLOAD,2022-08-24 22:00:00,15.73214552,8.58e-05,53.2201,175.1587,90.1114,199.5068,7.5817e-05,0.0001004,0.0,0 STARLINK-4542,1 53435U 22097AZ  22236.91667824  .00010040  00000-0  75817-4 0  9995,2 53435  53.2201 175.1587 0000858  90.1114 199.5068 15.73214552  1303,6727.854,91.532,350.296,349.141,0.0
53435.0,STARLINK-4542,PAYLOAD,2022-08-25 06:00:02,15.73131869,0.0001134,53.2198,173.5113,76.8054,301.7493,0.0005057999999999,0.00070757,0.0,0 STARLINK-4542,1 53435U 22097AZ  22237.25002315  .00070757  00000-0  50580-3 0  9991,2 53435  53.2198 173.5113 0001134  76.8054 301.7493 15.73131869  2799,6728.089,91.537,350.717,349.191,0.0
53435.0,STARLINK-4542,PAYLOAD,2022-08-25 14:00:01,15.73170901,0.0001036999999999,53.2195,171.8602,86.1983,21.1724,0.00021503,0.00029627,0.0,0 STARLINK-4542,1 53435U 22097AZ  22237.58334491  .00029627  00000-0  21503-3 0  9993,2 53435  53.2195 171.8602 0001037  86.1983  21.1724 15.73170901  1303,6727.978,91.535,350.541,349.145,0.0
53435.0,STARLINK-4542,PAYLOAD,2022-08-25 22:00:00,15.73215996,0.0001155999999999,53.2198,170.21099999999996,88.0128,108.2639,7.2711e-05,9.603e-05,0.0,0 STARLINK-4542,1 53435U 22097AZ  22237.91667824  .00009603  00000-0  72711-4 0  9999,2 53435  53.2198 170.2110 0001156  88.0128 108.2639 15.73215996  2900,6727.85,91.532,350.492,348.93699999999984,0.0
53435.0,STARLINK-4542,PAYLOAD,2022-08-26 14:00:01,15.73248077,0.0001149999999999,53.2195,166.912,88.64200000000002,285.6075,-3.6257e-05,-5.715e-05,0.0,0 STARLINK-4542,1 53435U 22097AZ  22238.58335648 -.00005715  00000-0 -36257-4 0  9996,2 53435  53.2195 166.9120 0001150  88.6420 285.6075 15.73248077  1308,6727.7580000000025,91.53,350.397,348.849,0.0
53435.0,STARLINK-4542,PAYLOAD,2022-08-26 22:00:00,15.7323552,0.0001293,53.2196,165.2632,90.4723,12.6959,-0.00014734,-0.00021277,0.0,0 STARLINK-4542,1 53435U 22097AZ  22238.91667824 -.00021277  00000-0 -14734-3 0  9993,2 53435  53.2196 165.2632 0001293  90.4723  12.6959 15.73235520  1302,6727.794,91.531,350.529,348.789,0.0
